{
  "norad_id": 40332,
  "name": "GSAT-16",
  "history": [
    {
      "epoch": "2026-04-10T11:05:20.275872Z",
      "apogee_km": 35814.51992346148,
      "perigee_km": 35757.74994772739,
      "latitude_deg": -0.038290777389661336,
      "longitude_deg": 55.05888209646652,
      "height_km": 35758.08085109388,
      "semi_major_axis_km": 42164.271935594435,
      "eccentricity": 0.0006732,
      "inclination_deg": 0.0743,
      "raan_deg": 82.0472,
      "arg_perigee_deg": 351.8375,
      "mean_anomaly_deg": 346.2199,
      "mean_motion_rev_day": 1.00273426
    },
    {
      "epoch": "2026-04-11T20:00:38.745792Z",
      "apogee_km": 35814.36888416226,
      "perigee_km": 35757.717091930324,
      "latitude_deg": 0.06506847573576763,
      "longitude_deg": 55.150042094128686,
      "height_km": 35800.21856916398,
      "semi_major_axis_km": 42164.17998804629,
      "eccentricity": 0.0006718,
      "inclination_deg": 0.0775,
      "raan_deg": 82.181,
      "arg_perigee_deg": 352.0523,
      "mean_anomaly_deg": 121.0593,
      "mean_motion_rev_day": 1.00273754
    },
    {
      "epoch": "2026-04-13T04:07:00.554016Z",
      "apogee_km": 35814.49145153004,
      "perigee_km": 35757.99371275275,
      "latitude_deg": -0.041147222939909675,
      "longitude_deg": 55.01926986354047,
      "height_km": 35797.828938357015,
      "semi_major_axis_km": 42164.3795821414,
      "eccentricity": 0.00066997,
      "inclination_deg": 0.0809,
      "raan_deg": 82.261,
      "arg_perigee_deg": 351.5391,
      "mean_anomaly_deg": 244.4084,
      "mean_motion_rev_day": 1.00273042
    },
    {
      "epoch": "2026-04-14T17:45:53.540928Z",
      "apogee_km": 35814.36312984384,
      "perigee_km": 35758.941730616745,
      "latitude_deg": 0.06068489719120478,
      "longitude_deg": 55.15984483181853,
      "height_km": 35786.67012780113,
      "semi_major_axis_km": 42164.789430230296,
      "eccentricity": 0.0006572,
      "inclination_deg": 0.0849,
      "raan_deg": 82.2832,
      "arg_perigee_deg": 351.3827,
      "mean_anomaly_deg": 90.8092,
      "mean_motion_rev_day": 1.0027158
    },
    {
      "epoch": "2026-04-15T19:25:58.027296Z",
      "apogee_km": 35814.30963022282,
      "perigee_km": 35759.62991975702,
      "latitude_deg": 0.06863275983059357,
      "longitude_deg": 55.14282671985368,
      "height_km": 35799.32933371419,
      "semi_major_axis_km": 42165.10677498992,
      "eccentricity": 0.0006484,
      "inclination_deg": 0.0876,
      "raan_deg": 82.3141,
      "arg_perigee_deg": 350.4043,
      "mean_anomaly_deg": 117.8244,
      "mean_motion_rev_day": 1.00270448
    },
    {
      "epoch": "2026-04-16T19:25:38.544096Z",
      "apogee_km": 35814.21208942993,
      "perigee_km": 35759.726339179804,
      "latitude_deg": 0.06928601334206003,
      "longitude_deg": 55.13563844710674,
      "height_km": 35799.69287929924,
      "semi_major_axis_km": 42165.10621430487,
      "eccentricity": 0.0006461,
      "inclination_deg": 0.0902,
      "raan_deg": 82.4539,
      "arg_perigee_deg": 350.2052,
      "mean_anomaly_deg": 118.7829,
      "mean_motion_rev_day": 1.0027045
    },
    {
      "epoch": "2026-04-17T22:46:08.237280Z",
      "apogee_km": 35814.23129659872,
      "perigee_km": 35759.61742252336,
      "latitude_deg": 0.04081179437567101,
      "longitude_deg": 55.07799466897781,
      "height_km": 35813.3185889849,
      "semi_major_axis_km": 42165.06135956104,
      "eccentricity": 0.00064762,
      "inclination_deg": 0.0933,
      "raan_deg": 82.676,
      "arg_perigee_deg": 350.041,
      "mean_anomaly_deg": 169.9662,
      "mean_motion_rev_day": 1.0027061
    },
    {
      "epoch": "2026-04-18T17:35:39.676704Z",
      "apogee_km": 35814.10211584479,
      "perigee_km": 35759.62493516584,
      "latitude_deg": 0.06858075227024259,
      "longitude_deg": 55.13775429788521,
      "height_km": 35787.92317084267,
      "semi_major_axis_km": 42165.00052550532,
      "eccentricity": 0.000646,
      "inclination_deg": 0.0952,
      "raan_deg": 82.8404,
      "arg_perigee_deg": 350.0015,
      "mean_anomaly_deg": 92.993,
      "mean_motion_rev_day": 1.00270827
    },
    {
      "epoch": "2026-04-19T17:33:03.436128Z",
      "apogee_km": 35813.98705014019,
      "perigee_km": 35759.56058325799,
      "latitude_deg": 0.07298213159131335,
      "longitude_deg": 55.13762682495085,
      "height_km": 35787.93619300381,
      "semi_major_axis_km": 42164.91081669909,
      "eccentricity": 0.0006454,
      "inclination_deg": 0.0978,
      "raan_deg": 83.0745,
      "arg_perigee_deg": 349.8673,
      "mean_anomaly_deg": 93.2236,
      "mean_motion_rev_day": 1.00271147
    },
    {
      "epoch": "2026-04-20T14:15:00.254016Z",
      "apogee_km": 35813.912032900895,
      "perigee_km": 35759.464593973644,
      "latitude_deg": 0.036967596934942046,
      "longitude_deg": 55.117578231225984,
      "height_km": 35766.832339784145,
      "semi_major_axis_km": 42164.82531343727,
      "eccentricity": 0.00064565,
      "inclination_deg": 0.1001,
      "raan_deg": 83.3187,
      "arg_perigee_deg": 349.7036,
      "mean_anomaly_deg": 44.4788,
      "mean_motion_rev_day": 1.00271452
    },
    {
      "epoch": "2026-04-21T19:10:40.077408Z",
      "apogee_km": 35813.92734955844,
      "perigee_km": 35759.18071472231,
      "latitude_deg": 0.08163300279683637,
      "longitude_deg": 55.13507942006058,
      "height_km": 35799.62706524925,
      "semi_major_axis_km": 42164.69103214038,
      "eccentricity": 0.0006492,
      "inclination_deg": 0.1032,
      "raan_deg": 83.585,
      "arg_perigee_deg": 349.5568,
      "mean_anomaly_deg": 119.4637,
      "mean_motion_rev_day": 1.00271931
    },
    {
      "epoch": "2026-04-22T14:00:01.401984Z",
      "apogee_km": 35813.944967989264,
      "perigee_km": 35758.979196625565,
      "latitude_deg": 0.040547488937153084,
      "longitude_deg": 55.12509487737603,
      "height_km": 35765.77589451334,
      "semi_major_axis_km": 42164.59908230742,
      "eccentricity": 0.0006518,
      "inclination_deg": 0.1054,
      "raan_deg": 83.8011,
      "arg_perigee_deg": 349.3573,
      "mean_anomaly_deg": 42.5601,
      "mean_motion_rev_day": 1.00272259
    },
    {
      "epoch": "2026-04-23T12:14:48.670656Z",
      "apogee_km": 35814.04204210185,
      "perigee_km": 35758.653931333596,
      "latitude_deg": 0.0025001289651868587,
      "longitude_deg": 55.1020543488946,
      "height_km": 35759.38107875266,
      "semi_major_axis_km": 42164.484986717725,
      "eccentricity": 0.00065681,
      "inclination_deg": 0.1079,
      "raan_deg": 83.9892,
      "arg_perigee_deg": 349.2942,
      "mean_anomaly_deg": 17.0484,
      "mean_motion_rev_day": 1.00272666
    },
    {
      "epoch": "2026-04-24T19:02:55.171968Z",
      "apogee_km": 35814.71798721501,
      "perigee_km": 35758.478663238224,
      "latitude_deg": 0.09242059736936992,
      "longitude_deg": 55.14641827919389,
      "height_km": 35800.660270658525,
      "semi_major_axis_km": 42164.73532522662,
      "eccentricity": 0.0006669,
      "inclination_deg": 0.1114,
      "raan_deg": 84.229,
      "arg_perigee_deg": 348.4473,
      "mean_anomaly_deg": 120.947,
      "mean_motion_rev_day": 1.00271773
    },
    {
      "epoch": "2026-04-25T01:53:36.407904Z",
      "apogee_km": 35815.29206611117,
      "perigee_km": 35758.24379303955,
      "latitude_deg": -0.04228330236605782,
      "longitude_deg": 55.02555312315131,
      "height_km": 35806.760323693896,
      "semi_major_axis_km": 42164.904929575365,
      "eccentricity": 0.00067649,
      "inclination_deg": 0.1122,
      "raan_deg": 84.2073,
      "arg_perigee_deg": 348.5013,
      "mean_anomaly_deg": 223.866,
      "mean_motion_rev_day": 1.00271168
    },
    {
      "epoch": "2026-04-26T13:49:46.945056Z",
      "apogee_km": 35815.57881988487,
      "perigee_km": 35757.50962090814,
      "latitude_deg": 0.04219841536972847,
      "longitude_deg": 55.132998819507804,
      "height_km": 35765.26769338326,
      "semi_major_axis_km": 42164.68122039651,
      "eccentricity": 0.0006886,
      "inclination_deg": 0.1161,
      "raan_deg": 84.4139,
      "arg_perigee_deg": 348.606,
      "mean_anomaly_deg": 44.074,
      "mean_motion_rev_day": 1.00271966
    },
    {
      "epoch": "2026-04-27T15:29:49.566048Z",
      "apogee_km": 35816.34591962154,
      "perigee_km": 35756.758780631935,
      "latitude_deg": 0.029945569268534596,
      "longitude_deg": 55.15072516145215,
      "height_km": 35777.039496828176,
      "semi_major_axis_km": 42164.68935012674,
      "eccentricity": 0.0007066,
      "inclination_deg": 0.0662,
      "raan_deg": 81.7402,
      "arg_perigee_deg": 349.3018,
      "mean_anomaly_deg": 72.1148,
      "mean_motion_rev_day": 1.00271937
    },
    {
      "epoch": "2026-04-28T00:03:12.616704Z",
      "apogee_km": 35818.63111227972,
      "perigee_km": 35757.929181483414,
      "latitude_deg": 0.008285281664278412,
      "longitude_deg": 55.04451310725054,
      "height_km": 35817.49574458954,
      "semi_major_axis_km": 42166.41714688157,
      "eccentricity": 0.00071979,
      "inclination_deg": 0.0671,
      "raan_deg": 81.9792,
      "arg_perigee_deg": 358.7004,
      "mean_anomaly_deg": 191.1629,
      "mean_motion_rev_day": 1.00265774
    },
    {
      "epoch": "2026-04-29T10:16:42.330144Z",
      "apogee_km": 35818.49728345506,
      "perigee_km": 35756.207049619115,
      "latitude_deg": -0.010384352498514302,
      "longitude_deg": 55.07847568271256,
      "height_km": 35755.63059167239,
      "semi_major_axis_km": 42165.48916653709,
      "eccentricity": 0.00073864,
      "inclination_deg": 0.0092,
      "raan_deg": 208.6156,
      "arg_perigee_deg": 217.4911,
      "mean_anomaly_deg": 0.5355,
      "mean_motion_rev_day": 1.00269084
    }
  ]
}